STARLINK-31918          
1 60037U 24111X   26068.34409352 -.00000798  00000+0 -14833-4 0  9995
2 60037  53.1608  77.0086 0001396  95.6385 264.4775 15.30187059 98915
LUR-1                   
1 60506U 24149AQ  26068.79566301  .00009121  00000+0  32985-3 0  9998
2 60506  97.3790 148.4255 0002777 309.1571  50.9421 15.28658648 86785
